     3.04           N: GNSS NAV DATA    M: MIXED            RINEX VERSION / TYPE
ssrcrin-15.6.1x                         20250101 164500 UTC PGM / RUN BY / DATE 
    18                                                      LEAP SECONDS        
                                                            END OF HEADER       
S23 2025 01 01 16 53 52 0.000000000000E+00 0.000000000000E+00 3.200410000000E+05
     3.866796400000E+04 0.000000000000E+00 0.000000000000E+00 6.300000000000E+01
     1.681330800000E+04 0.000000000000E+00 0.000000000000E+00 3.276700000000E+04
     0.000000000000E+00 0.000000000000E+00 0.000000000000E+00 2.140000000000E+02
E04 2025 01 01 16 40 00-1.215726369992E-04-9.507061804470E-12 0.000000000000E+00
     2.400000000000E+01-1.887500000000E+02 2.602251251353E-09-2.694635277438E+00
    -8.700415492058E-06 1.058566849679E-04 1.152046024799E-05 5.440619590759E+03
     3.192000000000E+05 3.166496753693E-08 3.132628421176E-01 1.117587089539E-08
     9.636312602985E-01 9.087500000000E+01-1.756451778490E+00-5.239861118391E-09
     3.103700710164E-10 5.170000000000E+02 2.347000000000E+03
     3.120000000000E+00 0.000000000000E+00-5.587935447693E-09-5.355104804039E-09
     3.200450000000E+05
R09 2025 01 01 16 45 00 2.296017482877E-04 2.728484105319E-12 3.200700000000E+05
    -7.485246582031E+03 1.951028823853E+00 0.000000000000E+00 4.000000000000E+00
    -1.648527490234E+04 1.498481750488E+00 1.862645149231E-09-2.000000000000E+00
     1.802140332031E+04 2.174953460693E+00-1.862645149231E-09 0.000000000000E+00
S21 2025 01 01 16 54 40 0.000000000000E+00 0.000000000000E+00 3.200950000000E+05
     4.200468400000E+04 0.000000000000E+00 0.000000000000E+00 6.300000000000E+01
    -3.674932960000E+03 0.000000000000E+00 0.000000000000E+00 3.276700000000E+04
     0.000000000000E+00 0.000000000000E+00 0.000000000000E+00 2.200000000000E+02
S23 2025 01 01 16 56 00 0.000000000000E+00 0.000000000000E+00 3.201680000000E+05
     3.866796400000E+04 0.000000000000E+00 0.000000000000E+00 6.300000000000E+01
     1.681330800000E+04 0.000000000000E+00 0.000000000000E+00 3.276700000000E+04
     0.000000000000E+00 0.000000000000E+00 0.000000000000E+00 2.150000000000E+02
S36 2025 01 01 16 56 00 0.000000000000E+00 0.000000000000E+00 3.201690000000E+05
     4.200368800000E+04 0.000000000000E+00 0.000000000000E+00 6.300000000000E+01
     3.674846960000E+03 0.000000000000E+00 0.000000000000E+00 3.276700000000E+04
     0.000000000000E+00 0.000000000000E+00 0.000000000000E+00 4.000000000000E+01
E21 2025 01 01 16 40 00-6.376052042469E-04-2.273736754432E-12 0.000000000000E+00
     2.400000000000E+01-1.728125000000E+01 3.574791761569E-09 2.792193574184E-01
    -6.817281246185E-07 2.547642216086E-04 6.385147571564E-06 5.440602737427E+03
     3.192000000000E+05 4.284083843231E-08 2.413537291824E+00 6.146728992462E-08
     9.642289793673E-01 2.049687500000E+02 1.028169080718E+00-5.562731710104E-09
    -5.503800683962E-10 5.170000000000E+02 2.347000000000E+03
     3.120000000000E+00 0.000000000000E+00 0.000000000000E+00 6.984919309616E-10
     3.202550000000E+05
S21 2025 01 01 16 57 36 0.000000000000E+00 0.000000000000E+00 3.202570000000E+05
     4.200468400000E+04 0.000000000000E+00 0.000000000000E+00 6.300000000000E+01
    -3.674932960000E+03 0.000000000000E+00 0.000000000000E+00 3.276700000000E+04
     0.000000000000E+00 0.000000000000E+00 0.000000000000E+00 2.210000000000E+02
S23 2025 01 01 16 58 08 0.000000000000E+00 0.000000000000E+00 3.202960000000E+05
     3.866796400000E+04 0.000000000000E+00 0.000000000000E+00 6.300000000000E+01
     1.681330800000E+04 0.000000000000E+00 0.000000000000E+00 3.276700000000E+04
     0.000000000000E+00 0.000000000000E+00 0.000000000000E+00 2.160000000000E+02
S36 2025 01 01 16 58 24 0.000000000000E+00 0.000000000000E+00 3.203160000000E+05
     4.200368800000E+04 0.000000000000E+00 0.000000000000E+00 6.300000000000E+01
     3.674846960000E+03 0.000000000000E+00 0.000000000000E+00 3.276700000000E+04
     0.000000000000E+00 0.000000000000E+00 0.000000000000E+00 4.100000000000E+01
E21 2025 01 01 16 40 00-6.376064266078E-04-2.287947609148E-12 0.000000000000E+00
     2.400000000000E+01-1.728125000000E+01 3.574791761569E-09 2.792193574184E-01
    -6.817281246185E-07 2.547642216086E-04 6.385147571564E-06 5.440602737427E+03
     3.192000000000E+05 4.284083843231E-08 2.413537291824E+00 6.146728992462E-08
     9.642289793673E-01 2.049687500000E+02 1.028169080718E+00-5.562731710104E-09
    -5.503800683962E-10 2.580000000000E+02 2.347000000000E+03
     3.120000000000E+00 0.000000000000E+00 0.000000000000E+00 0.000000000000E+00
     3.203400000000E+05
